OBJECT_NAME,OBJECT_ID,EPOCH,MEAN_MOTION,ECCENTRICITY,INCLINATION,RA_OF_ASC_NODE,ARG_OF_PERICENTER,MEAN_ANOMALY,EPHEMERIS_TYPE,CLASSIFICATION_TYPE,NORAD_CAT_ID,ELEMENT_SET_NO,REV_AT_EPOCH,BSTAR,MEAN_MOTION_DOT,MEAN_MOTION_DDOT
SL-16 R/B,1996-051B,2026-07-07T05:09:27.531072,14.12453336,.0017138,70.7653,282.2644,308.6346,51.3239,0,U,24298,999,53852,.99759E-4,.135E-5,0
SL-16 R/B,1998-043G,2026-07-07T06:56:12.476256,14.26071866,.0010445,98.8374,142.6222,33.3747,326.8089,0,U,25400,999,45603,.3207E-4,.31E-6,0
ISS (ZARYA),1998-067A,2026-07-07T12:12:01.986912,15.48933372,.0006687,51.6304,199.5144,267.6545,92.3678,0,U,25544,999,57490,.11369E-3,.5806E-4,0
CZ-4B R/B,1999-025C,2026-07-07T02:18:28.433088,14.18286752,.003711,98.6473,229.4327,3.2169,23.0322,0,U,25732,999,40509,.34226E-4,.28E-6,0
OKEAN-O,1999-039A,2026-07-07T03:36:42.863040,14.80491100,.0001047,97.9305,246.7183,74.8049,285.3279,0,U,25860,999,45206,.72543E-4,.503E-5,0
SL-16 R/B,1999-039B,2026-07-07T02:04:08.949216,14.81865187,.0013762,97.9826,246.8916,226.1050,133.9027,0,U,25861,999,45454,.60936E-4,.428E-5,0
DELTA 2 R/B,1999-041E,2026-07-06T23:51:40.303872,14.12061026,.0501202,51.7610,184.6656,340.5445,17.6943,0,U,25876,999,37988,.23261E-3,.1209E-4,0
HELIOS 1B,1999-064A,2026-07-07T05:12:53.487072,14.88061078,.0002292,98.1596,93.9355,64.0347,296.1105,0,U,25977,999,70303,.14323E-3,.1258E-4,0
TERRA,1999-068A,2026-07-07T12:10:26.026752,14.61119538,.0003046,97.9444,237.2467,138.1285,354.4816,0,U,25994,999,41257,.74049E-4,.32E-5,0
SL-16 R/B,2000-006B,2026-07-07T01:25:23.830176,14.15840447,.0016834,71.0005,206.8406,351.6066,8.4772,0,U,26070,999,36545,-.79334E-4,-.204E-5,0
ENVISAT,2002-009A,2026-07-07T08:42:14.135904,14.39069589,.0001371,98.3843,139.2321,84.5205,77.1642,0,U,27386,999,27638,.37819E-4,.74E-6,0
IDEFIX & ARIANE 42P R/B,2002-021B,2026-07-07T06:22:33.087072,14.31091373,.0011392,98.5942,125.5315,189.8899,170.2061,0,U,27422,999,26112,.81363E-4,.171E-5,0
CZ-4B R/B,2002-024C,2026-07-07T02:37:57.786240,14.14567441,.0050855,98.8689,240.7995,44.7225,343.4236,0,U,27432,999,24612,.3345E-4,.21E-6,0
MIDORI II (ADEOS-II),2002-056A,2026-07-07T08:50:34.015200,14.29360353,.0001791,98.7889,147.8009,50.3715,309.7624,0,U,27597,999,22739,.96623E-4,.201E-5,0
CZ-4B R/B,2003-049C,2026-07-07T10:44:45.102336,14.55112654,.0047224,98.6904,188.1015,225.2589,134.4759,0,U,28059,999,20401,.59646E-4,.209E-5,0
CZ-2C R/B,2004-012C,2026-07-06T17:13:58.523808,15.83414277,.0011228,97.7057,265.7145,217.1216,142.9277,0,U,28222,999,22298,.48784E-3,.106998E-2,0
SL-16 R/B,2004-021B,2026-07-07T10:56:07.054080,14.14613874,.0006506,71.0021,341.1507,231.6529,128.4009,0,U,28353,999,13977,.16559E-3,.271E-5,0
CZ-4B R/B,2004-035C,2026-07-07T01:41:03.353280,15.30915636,.0028859,97.3361,220.9219,263.1254,96.6704,0,U,28415,999,19816,.17717E-3,.528E-4,0
CZ-2C R/B,2004-046B,2026-07-07T04:11:50.055360,14.27031495,.0139665,98.1927,95.7050,161.0143,199.6320,0,U,28480,999,12554,.48941E-4,.92E-6,0
ALOS (DAICHI),2006-002A,2026-07-07T07:20:18.358656,14.70091569,.0000796,98.1332,143.8117,76.5463,283.5831,0,U,28931,999,9105,.16181E-3,.923E-5,0
RESURS-DK 1,2006-021A,2026-07-07T06:17:53.752416,15.13300743,.0006735,69.9330,287.5844,279.9257,80.1149,0,U,29228,999,10561,.90655E-4,.1509E-4,0
CZ-4B R/B,2006-046C,2026-07-07T10:13:02.127648,15.17940399,.0031828,97.5441,232.9706,209.3542,150.5904,0,U,29507,999,7820,.14313E-3,.2871E-4,0
